start=new Date('2022-04-01T00:00:00.000Z').valueOf();
sats=[{"OBJECT_TYPE":"PAYLOAD","CLASSIFICATION_TYPE":"U","APOAPSIS":"548.346","GP_ID":"200145984","OBJECT_NAME":"STARLINK-2496","TLE_LINE2":"2 48486  53.0555 182.0945 0001690  60.9106 299.2052 15.06412530 49438","REF_FRAME":"TEME","MEAN_MOTION_DOT":"0.00004870","TIME_SYSTEM":"UTC","MEAN_MOTION":"15.06412530","TLE_LINE1":"1 48486U 21040BL  22090.56726506  .00004870  00000-0  34548-3 0  9993","DECAY_DATE":null,"MEAN_ELEMENT_THEORY":"SGP4","LAUNCH_DATE":"2021-05-09","PERIOD":"95.591","CENTER_NAME":"EARTH","RA_OF_ASC_NODE":"182.0945","FILE":"3381849","OBJECT_ID":"2021-040BL","ELEMENT_SET_NO":"999","NORAD_CAT_ID":"48486","ARG_OF_PERICENTER":"60.9106","SEMIMAJOR_AXIS":"6925.310","COUNTRY_CODE":"US","INCLINATION":"53.0555","PERIAPSIS":"546.005","EPHEMERIS_TYPE":"0","BSTAR":"0.00034548000000","ECCENTRICITY":"0.00016900","REV_AT_EPOCH":"4943","EPOCH":"2022-03-31T13:36:51.701184","RCS_SIZE":"LARGE","MEAN_MOTION_DDOT":"0.0000000000000","MEAN_ANOMALY":"299.2052","SITE":"AFETR"},{"CENTER_NAME":"EARTH","PERIOD":"95.593","LAUNCH_DATE":"2021-05-09","MEAN_ELEMENT_THEORY":"SGP4","DECAY_DATE":null,"TLE_LINE1":"1 48487U 21040BM  22090.50460901  .00003565  00000-0  25816-3 0  9990","MEAN_MOTION":"15.06394104","MEAN_MOTION_DOT":"0.00003565","TIME_SYSTEM":"UTC","REF_FRAME":"TEME","TLE_LINE2":"2 48487  53.0528 182.3804 0001642  53.2529 306.8611 15.06394104 49439","OBJECT_NAME":"STARLINK-2494","GP_ID":"200146242","APOAPSIS":"548.369","CLASSIFICATION_TYPE":"U","OBJECT_TYPE":"PAYLOAD","SITE":"AFETR","MEAN_ANOMALY":"306.8611","MEAN_MOTION_DDOT":"0.0000000000000","RCS_SIZE":"LARGE","EPOCH":"2022-03-31T12:06:38.218464","REV_AT_EPOCH":"4943","ECCENTRICITY":"0.00016420","BSTAR":"0.00025816000000","EPHEMERIS_TYPE":"0","PERIAPSIS":"546.094","INCLINATION":"53.0528","COUNTRY_CODE":"US","SEMIMAJOR_AXIS":"6925.367","ARG_OF_PERICENTER":"53.2529","NORAD_CAT_ID":"48487","ELEMENT_SET_NO":"999","OBJECT_ID":"2021-040BM","FILE":"3381849","RA_OF_ASC_NODE":"182.3804"},{"MEAN_MOTION":"15.06390585","TLE_LINE2":"2 48553  53.0553 112.4839 0001522  67.7831 292.3320 15.06390585 48733","MEAN_MOTION_DOT":"0.00001061","TIME_SYSTEM":"UTC","REF_FRAME":"TEME","GP_ID":"200113837","OBJECT_NAME":"STARLINK-2063","OBJECT_TYPE":"PAYLOAD","CLASSIFICATION_TYPE":"U","APOAPSIS":"548.296","CENTER_NAME":"EARTH","MEAN_ELEMENT_THEORY":"SGP4","LAUNCH_DATE":"2021-05-15","PERIOD":"95.593","TLE_LINE1":"1 48553U 21041A   22090.48157585  .00001061  00000-0  90104-4 0  9995","DECAY_DATE":null,"EPHEMERIS_TYPE":"0","PERIAPSIS":"546.188","BSTAR":"0.00009010400000","ECCENTRICITY":"0.00015220","SEMIMAJOR_AXIS":"6925.377","COUNTRY_CODE":"US","INCLINATION":"53.0553","NORAD_CAT_ID":"48553","ARG_OF_PERICENTER":"67.7831","FILE":"3381388","RA_OF_ASC_NODE":"112.4839","OBJECT_ID":"2021-041A","ELEMENT_SET_NO":"999","MEAN_ANOMALY":"292.3320","SITE":"AFETR","EPOCH":"2022-03-31T11:33:28.153440","RCS_SIZE":"LARGE","MEAN_MOTION_DDOT":"0.0000000000000","REV_AT_EPOCH":"4873"},{"DECAY_DATE":null,"TLE_LINE1":"1 48554U 21041B   22090.35624855  .00003353  00000-0  24387-3 0  9996","CENTER_NAME":"EARTH","PERIOD":"95.592","LAUNCH_DATE":"2021-05-15","MEAN_ELEMENT_THEORY":"SGP4","OBJECT_NAME":"STARLINK-2139","GP_ID":"200145248","APOAPSIS":"548.245","CLASSIFICATION_TYPE":"U","OBJECT_TYPE":"PAYLOAD","MEAN_MOTION":"15.06404962","MEAN_MOTION_DOT":"0.00003353","TIME_SYSTEM":"UTC","REF_FRAME":"TEME","TLE_LINE2":"2 48554  53.0534 113.0428 0001511  81.9602 278.1558 15.06404962 48264","MEAN_MOTION_DDOT":"0.0000000000000","RCS_SIZE":"LARGE","EPOCH":"2022-03-31T08:32:59.874720","REV_AT_EPOCH":"4826","SITE":"AFETR","MEAN_ANOMALY":"278.1558","ARG_OF_PERICENTER":"81.9602","NORAD_CAT_ID":"48554","ELEMENT_SET_NO":"999","OBJECT_ID":"2021-041B","FILE":"3381849","RA_OF_ASC_NODE":"113.0428","ECCENTRICITY":"0.00015110","BSTAR":"0.00024387000000","PERIAPSIS":"546.152","EPHEMERIS_TYPE":"0","INCLINATION":"53.0534","COUNTRY_CODE":"US","SEMIMAJOR_AXIS":"6925.333"},{"ECCENTRICITY":"0.00016540","BSTAR":"-0.00029137000000","EPHEMERIS_TYPE":"0","PERIAPSIS":"546.026","INCLINATION":"53.0536","SEMIMAJOR_AXIS":"6925.306","COUNTRY_CODE":"US","ARG_OF_PERICENTER":"52.7830","NORAD_CAT_ID":"48555","ELEMENT_SET_NO":"999","OBJECT_ID":"2021-041C","FILE":"3382113","RA_OF_ASC_NODE":"121.1274","SITE":"AFETR","MEAN_ANOMALY":"307.3310","EPOCH":"2022-03-31T18:47:22.813152","RCS_SIZE":"LARGE","MEAN_MOTION_DDOT":"0.0000000000000","REV_AT_EPOCH":"4863","MEAN_MOTION":"15.06413810","MEAN_MOTION_DOT":"-0.00004620","REF_FRAME":"TEME","TIME_SYSTEM":"UTC","TLE_LINE2":"2 48555  53.0536 121.1274 0001654  52.7830 307.3310 15.06413810 48637","OBJECT_NAME":"STARLINK-2145","GP_ID":"200155214","APOAPSIS":"548.317","CLASSIFICATION_TYPE":"U","OBJECT_TYPE":"PAYLOAD","CENTER_NAME":"EARTH","PERIOD":"95.591","LAUNCH_DATE":"2021-05-15","MEAN_ELEMENT_THEORY":"SGP4","DECAY_DATE":null,"TLE_LINE1":"1 48555U 21041C   22090.78290293 -.00004620  00000-0 -29137-3 0  9997"},{"RCS_SIZE":"LARGE","EPOCH":"2022-03-31T12:09:17.559936","MEAN_MOTION_DDOT":"0.0000000000000","REV_AT_EPOCH":"4814","MEAN_ANOMALY":"300.2718","SITE":"AFETR","NORAD_CAT_ID":"48556","ARG_OF_PERICENTER":"59.8444","FILE":"3381849","RA_OF_ASC_NODE":"122.3698","OBJECT_ID":"2021-041D","ELEMENT_SET_NO":"999","EPHEMERIS_TYPE":"0","PERIAPSIS":"545.994","BSTAR":"0.00025507000000","ECCENTRICITY":"0.00017470","COUNTRY_CODE":"US","SEMIMAJOR_AXIS":"6925.339","INCLINATION":"53.0533","TLE_LINE1":"1 48556U 21041D   22090.50645324  .00003520  00000-0  25507-3 0  9990","DECAY_DATE":null,"CENTER_NAME":"EARTH","MEAN_ELEMENT_THEORY":"SGP4","LAUNCH_DATE":"2021-05-15","PERIOD":"95.592","GP_ID":"200146250","OBJECT_NAME":"STARLINK-2151","OBJECT_TYPE":"PAYLOAD","CLASSIFICATION_TYPE":"U","APOAPSIS":"548.414","MEAN_MOTION":"15.06403202","TLE_LINE2":"2 48556  53.0533 122.3698 0001747  59.8444 300.2718 15.06403202 48144","TIME_SYSTEM":"UTC","MEAN_MOTION_DOT":"0.00003520","REF_FRAME":"TEME"},{"MEAN_ANOMALY":"292.8258","SITE":"AFETR","REV_AT_EPOCH":"4828","MEAN_MOTION_DDOT":"0.0000000000000","RCS_SIZE":"LARGE","EPOCH":"2022-03-31T12:15:55.324800","COUNTRY_CODE":"US","SEMIMAJOR_AXIS":"6925.361","INCLINATION":"53.0545","EPHEMERIS_TYPE":"0","PERIAPSIS":"546.235","BSTAR":"0.00006771200000","ECCENTRICITY":"0.00014310","RA_OF_ASC_NODE":"112.3536","FILE":"3381849","OBJECT_ID":"2021-041E","ELEMENT_SET_NO":"999","NORAD_CAT_ID":"48557","ARG_OF_PERICENTER":"67.2882","MEAN_ELEMENT_THEORY":"SGP4","LAUNCH_DATE":"2021-05-15","PERIOD":"95.592","CENTER_NAME":"EARTH","TLE_LINE1":"1 48557U 21041E   22090.51105700  .00000727  00000-0  67712-4 0  9992","DECAY_DATE":null,"TLE_LINE2":"2 48557  53.0545 112.3536 0001431  67.2882 292.8258 15.06396076 48287","MEAN_MOTION_DOT":"0.00000727","TIME_SYSTEM":"UTC","REF_FRAME":"TEME","MEAN_MOTION":"15.06396076","OBJECT_TYPE":"PAYLOAD","CLASSIFICATION_TYPE":"U","APOAPSIS":"548.217","GP_ID":"200146486","OBJECT_NAME":"STARLINK-2155"},{"OBJECT_TYPE":"PAYLOAD","CLASSIFICATION_TYPE":"U","APOAPSIS":"548.309","GP_ID":"200155941","OBJECT_NAME":"STARLINK-2166","TLE_LINE2":"2 48558  53.0530 111.1698 0001561  68.2765 291.8390 15.06395190 48724","MEAN_MOTION_DOT":"0.00002620","REF_FRAME":"TEME","TIME_SYSTEM":"UTC","MEAN_MOTION":"15.06395190","TLE_LINE1":"1 48558U 21041F   22090.77276112  .00002620  00000-0  19477-3 0  9995","DECAY_DATE":null,"MEAN_ELEMENT_THEORY":"SGP4","LAUNCH_DATE":"2021-05-15","PERIOD":"95.592","CENTER_NAME":"EARTH","FILE":"3382131","RA_OF_ASC_NODE":"111.1698","OBJECT_ID":"2021-041F","ELEMENT_SET_NO":"999","NORAD_CAT_ID":"48558","ARG_OF_PERICENTER":"68.2765","SEMIMAJOR_AXIS":"6925.363","COUNTRY_CODE":"US","INCLINATION":"53.0530","EPHEMERIS_TYPE":"0","PERIAPSIS":"546.147","BSTAR":"0.00019477000000","ECCENTRICITY":"0.00015610","REV_AT_EPOCH":"4872","RCS_SIZE":"LARGE","MEAN_MOTION_DDOT":"0.0000000000000","EPOCH":"2022-03-31T18:32:46.560768","MEAN_ANOMALY":"291.8390","SITE":"AFETR"},{"TLE_LINE2":"2 48559  53.0542 111.2951 0001713  58.9859 301.1298 15.06388816 48763","MEAN_MOTION_DOT":"0.00000830","TIME_SYSTEM":"UTC","REF_FRAME":"TEME","MEAN_MOTION":"15.06388816","OBJECT_TYPE":"PAYLOAD","CLASSIFICATION_TYPE":"U","APOAPSIS":"548.434","GP_ID":"200155937","OBJECT_NAME":"STARLINK-2167","MEAN_ELEMENT_THEORY":"SGP4","LAUNCH_DATE":"2021-05-15","PERIOD":"95.593","CENTER_NAME":"EARTH","TLE_LINE1":"1 48559U 21041G   22090.74233378  .00000830  00000-0  74631-4 0  9995","DECAY_DATE":null,"SEMIMAJOR_AXIS":"6925.383","COUNTRY_CODE":"US","INCLINATION":"53.0542","EPHEMERIS_TYPE":"0","PERIAPSIS":"546.062","BSTAR":"0.00007463100000","ECCENTRICITY":"0.00017130","FILE":"3382131","RA_OF_ASC_NODE":"111.2951","OBJECT_ID":"2021-041G","ELEMENT_SET_NO":"999","NORAD_CAT_ID":"48559","ARG_OF_PERICENTER":"58.9859","MEAN_ANOMALY":"301.1298","SITE":"AFETR","REV_AT_EPOCH":"4876","EPOCH":"2022-03-31T17:48:57.638592","RCS_SIZE":"LARGE","MEAN_MOTION_DDOT":"0.0000000000000"},{"ARG_OF_PERICENTER":"73.8144","NORAD_CAT_ID":"48561","OBJECT_ID":"2021-041J","ELEMENT_SET_NO":"999","FILE":"3382140","RA_OF_ASC_NODE":"80.5234","ECCENTRICITY":"0.00013480","PERIAPSIS":"546.328","EPHEMERIS_TYPE":"0","BSTAR":"0.00320930000000","SEMIMAJOR_AXIS":"6925.396","COUNTRY_CODE":"US","INCLINATION":"53.0526","RCS_SIZE":"LARGE","EPOCH":"2022-03-31T22:00:00.999936","MEAN_MOTION_DDOT":"0.0000000000000","REV_AT_EPOCH":"4916","MEAN_ANOMALY":"217.3548","SITE":"AFETR","OBJECT_NAME":"STARLINK-2186","GP_ID":"200156430","APOAPSIS":"548.195","OBJECT_TYPE":"PAYLOAD","CLASSIFICATION_TYPE":"U","MEAN_MOTION":"15.06384370","TLE_LINE2":"2 48561  53.0526  80.5234 0001348  73.8144 217.3548 15.06384370 49169","REF_FRAME":"TEME","MEAN_MOTION_DOT":"0.00047826","TIME_SYSTEM":"UTC","DECAY_DATE":null,"TLE_LINE1":"1 48561U 21041J   22090.91667824  .00047826  00000-0  32093-2 0  9994","CENTER_NAME":"EARTH","PERIOD":"95.593","MEAN_ELEMENT_THEORY":"SGP4","LAUNCH_DATE":"2021-05-15"}];
